ISO_COUNTRY_NAME_ORIGNIAL,iso_country_no_x,iso_country_cleaned,official_state_name,sovereignty,shoprank_country,ns8_country,primary_language,similarweb_export_country,linkedin_country,country_standard
aFGHANISTAN,Afghanistan,Afghanistan,The Islamic Republic of Afghanistan,UN member state,Afghanistan,Afghanistan,Afghanistan,Afghanistan,afghanistan,Afghanistan
"aKROTIRI AND dHEKELIA ¬êì sEE uNITED kINGDOM, tHE",,,,,,,,,,
„ÖLAND iSLANDS,√Öland Islands,√Öland Islands,√Öland,Finland,,,,,‚àö√ñland islands,Aland Islands
aLBANIA,Albania,Albania,The Republic of Albania,UN member state,Albania,Albania,Albanian,Albania,albania,Albania
aLGERIA,Algeria,Algeria,The People's Democratic Republic of Algeria,UN member state,Algeria,Algeria,Berber,,algeria,Algeria
aMERICAN sAMOA,American Samoa,American Samoa,The Territory of American Samoa,United States,American Samoa,American Samoa,Samoan,,american samoa,American Samoa
aNDORRA,Andorra,Andorra,The Principality of Andorra,UN member state,,Andorra,Catalan,Andorra,andorra,Andorra
aNGOLA,Angola,Angola,The Republic of Angola,UN member state,Angola,Angola,Portuguese,,angola,Angola
aNGUILLA,Anguilla,Anguilla,Anguilla,United Kingdom,Anguilla,Anguilla,English,Anguilla,anguilla,Anguilla
aNTARCTICA [A],Antarctica,Antarctica,All land and ice shelves south of the 60th parallel south,Antarctic Treaty,,,,,,Antarctica
aNTIGUA AND bARBUDA,Antigua and Barbuda,Antigua and Barbuda,Antigua and Barbuda,UN member state,Antigua and Barbuda,Antigua and Barbuda,Standard English,Antigua and Barbuda,,Antigua and Barbuda
aRGENTINA,Argentina,Argentina,The Argentine Republic,UN member state,Argentina,Argentina,Spanish,Argentina,argentina,Argentina
aRMENIA,Armenia,Armenia,The Republic of Armenia,UN member state,Armenia,Armenia,Armenian,Armenia,armenia,Armenia
aRUBA,Aruba,Aruba,Aruba,Netherlands,Aruba,Aruba,Papiamento,Aruba,aruba,Aruba
aSHMORE AND cARTIER iSLANDS ¬êì sEE aUSTRALIA.,,,,,,,,,,
aUSTRALIA [B],Australia,Australia,The Commonwealth of Australia,UN member state,Australia,Australia,English,Australia,australia,Australia
aUSTRIA,Austria,Austria,The Republic of Austria,UN member state,Austria,Austria,German,Austria,austria,Austria
aZERBAIJAN,Azerbaijan,Azerbaijan,The Republic of Azerbaijan,UN member state,Azerbaijan,Azerbaijan,Azerbaijani,Azerbaijan,azerbaijan,Azerbaijan
bAHAMAS (THE),Bahamas (the),Bahamas,The Commonwealth of The Bahamas,UN member state,Bahamas,Bahamas,English,Bahamas,bahamas,Bahamas
bAHRAIN,Bahrain,Bahrain,The Kingdom of Bahrain,UN member state,Bahrain,Bahrain,Arabic,,bahrain,Bahrain
bANGLADESH,Bangladesh,Bangladesh,The People's Republic of Bangladesh,UN member state,Bangladesh,Bangladesh,Bengali,Bangladesh,bangladesh,Bangladesh
bARBADOS,Barbados,Barbados,Barbados,UN member state,Barbados,Barbados,English,Barbados,barbados,Barbados
bELARUS,Belarus,Belarus,The Republic of Belarus,UN member state,Belarus,Belarus,Belarusian,Belarus,belarus,Belarus
bELGIUM,Belgium,Belgium,The Kingdom of Belgium,UN member state,Belgium,Belgium,French,Belgium,belgium,Belgium
bELIZE,Belize,Belize,Belize,UN member state,Belize,Belize,English,Belize,belize,Belize
bENIN,Benin,Benin,The Republic of Benin,UN member state,Benin,Benin,French,Benin,benin,Benin
bERMUDA,Bermuda,Bermuda,Bermuda,United Kingdom,Bermuda,Bermuda,English,Bermuda,bermuda,Bermuda
bHUTAN,Bhutan,Bhutan,The Kingdom of Bhutan,UN member state,,Bhutan,Dzongkha,Bhutan,bhutan,Bhutan
bOLIVIA (pLURINATIONAL sTATE OF),Bolivia (Plurinational State of),Bolivia,The Plurinational State of Bolivia,UN member state,Bolivia,Bolivia,Spanish,Bolivia,bolivia,Bolivia
"bONAIRE
 sINT eUSTATIUS
 sABA","Bonaire
 Sint Eustatius
 Saba",,"Bonaire, Sint Eustatius and Saba",Netherlands,,,,,caribbean netherlands,Bonaire Sint Eustatius Saba
bOSNIA AND hERZEGOVINA,Bosnia and Herzegovina,Bosnia,Bosnia and Herzegovina,UN member state,Bosnia and Herzegovina,Bosnia,Bosnian,Bosnia,bosnia and herzegovina,Bosnia and Herzegovina
bOTSWANA,Botswana,Botswana,The Republic of Botswana,UN member state,Botswana,Botswana,Tswana/Setswana,Botswana,botswana,Botswana
bOUVET iSLAND,Bouvet Island,,Bouvet Island,Norway,,,,,,Bouvet Island
bRAZIL,Brazil,Brazil,The Federative Republic of Brazil,UN member state,Brasil,Brazil,Portuguese,Brazil,brazil,Brazil
bRITISH iNDIAN oCEAN tERRITORY (THE),British Indian Ocean Territory (the),British Indian Ocean Territory,The British Indian Ocean Territory,United Kingdom,British Indian Ocean Territory,,,,,British Indian Ocean Territory
bRITISH vIRGIN iSLANDS ¬êì sEE vIRGIN iSLANDS (bRITISH).,,,,,,,,,,
bRUNEI dARUSSALAM [E],Brunei Darussalam,Brunei,"The Nation of Brunei, the Abode of Peace",UN member state,Brunei,Brunei,Brunei,Brunei,brunei,Brunei Darussalam
bULGARIA,Bulgaria,Bulgaria,The Republic of Bulgaria,UN member state,Bulgaria,Bulgaria,Bulgarian,Bulgaria,bulgaria,Bulgaria
bURKINA fASO,Burkina Faso,Burkina Faso,Burkina Faso,UN member state,Burkina Faso,Burkina Faso,Mossi,Burkina Faso,burkina faso,Burkina Faso
bURMA ¬êì sEE mYANMAR.,,,,,,,,,,
bURUNDI,Burundi,Burundi,The Republic of Burundi,UN member state,,Burundi,French,Burundi,burundi,Burundi
cABO vERDE [F],Cabo Verde,Cape Verde,The Republic of Cabo Verde,UN member state,Cape Verde,Cape Verde,Kabuverdianu,Cape Verde,cape verde,Cabo Verde
cAMBODIA,Cambodia,Cambodia,The Kingdom of Cambodia,UN member state,Cambodia,Cambodia,Khmer,Cambodia,cambodia,Cambodia
cAMEROON,Cameroon,Cameroon,The Republic of Cameroon,UN member state,Cameroon,Cameroon,Fulfude,Cameroon,cameroon,Cameroon
cANADA,Canada,Canada,Canada,UN member state,Canada,Canada,English,Canada,canada,Canada
cAPE vERDE ¬êì sEE cABO vERDE.,,,,,,,,,,
"cARIBBEAN nETHERLANDS ¬êì sEE bONAIRE, sINT eUSTATIUS AND sABA.",,,,,,,,,,
cAYMAN iSLANDS (THE),Cayman Islands (the),Cayman Islands,The Cayman Islands,United Kingdom,Cayman Islands,Cayman Islands,English,Cayman Islands,cayman islands,Cayman Islands
cENTRAL aFRICAN rEPUBLIC (THE),Central African Republic (the),Central African Republic,The Central African Republic,UN member state,Central African Republic,Central African,Sango,Central African Republic,,Central African Republic
cHAD,Chad,Chad,The Republic of Chad,UN member state,,Chad,Arabic,Chad,chad,Chad
cHILE,Chile,Chile,The Republic of Chile,UN member state,Chile,Chile,Spanish,Chile,chile,Chile
cHINA,China,China,The People's Republic of China,UN member state,China,China,"Chinese, Mandarin",China,china,China
"cHINA, tHE rEPUBLIC OF ¬êì sEE tAIWAN (pROVINCE OF cHINA).",,,,,,,,,,
cHRISTMAS iSLAND,Christmas Island,,The Territory of Christmas Island,Australia,Christmas Island,,,,,Christmas Island
cLIPPERTON iSLAND ¬êì sEE fRANCE.,,,,,,,,,,
cOCOS (kEELING) iSLANDS (THE),Cocos (Keeling) Islands (the),Cocos (Keeling) Islands,The Territory of Cocos (Keeling) Islands,Australia,Cocos (Keeling) Islands,,,,,Cocos Keeling Islands
cOLOMBIA,Colombia,Colombia,The Republic of Colombia,UN member state,Colombia,Colombia,Spanish,Colombia,colombia,Colombia
cOMOROS (THE),Comoros (the),Comoros,The Union of the Comoros,UN member state,,Comoros,"Comorian, Ngazidja",Comoros,,Comoros
cONGO (THE dEMOCRATIC rEPUBLIC OF THE),Congo (the Democratic Republic of the),Congo Republic,The Democratic Republic of the Congo,UN member state,,Congo Republic,French,Congo Republic,democratic republic of the congo,Congo the Democratic Republic of the
cONGO (THE) [G],Congo (the),Congo,The Republic of the Congo,UN member state,Democratic Republic of the Congo,Congo,French,Congo,,Congo
cOOK iSLANDS (THE),Cook Islands (the),Cook Islands,The Cook Islands,New Zealand,,Cook Islands,English,Cook Islands,cook islands,Cook Islands
cORAL sEA iSLANDS ¬êì sEE aUSTRALIA.,,,,,,,,,,
cOSTA rICA,Costa Rica,Costa Rica,The Republic of Costa Rica,UN member state,Costa Rica,Costa Rica,Spanish,Costa Rica,costa rica,Costa Rica
c„•TE D'iVOIRE [H],C√¥te d'Ivoire,Cote d Ivoire,The Republic of C√¥te d'Ivoire,UN member state,Ivory Coast,Cote d Ivoire,French,Cote d Ivoire,c‚àö¬•te d‚Äö√Ñ√¥ivoire,Cote d Ivoire
cROATIA,Croatia,Croatia,The Republic of Croatia,UN member state,Croatia,Croatia,Croatian,Croatia,croatia,Croatia
cUBA,Cuba,Cuba,The Republic of Cuba,UN member state,Cuba,Cuba,Spanish,Cuba,cuba,Cuba
cURA„ßAO,Cura√ßao,Cura√ßao,The Country of Cura√ßao,Netherlands,,,,,cura‚àö√üao,Curacao
cYPRUS,Cyprus,Cyprus,The Republic of Cyprus,UN member state,Cyprus,Cyprus,Greek,Cyprus,cyprus,Cyprus
cZECHIA [I],Czechia,Czech Republic,The Czech Republic,UN member state,Czech Republic,Czech Republic,Czech,Czech Republic,czechia,Czechia
"dEMOCRATIC pEOPLE'S rEPUBLIC OF kOREA ¬êì sEE kOREA, tHE dEMOCRATIC pEOPLE'S rEPUBLIC OF.",,,,,,,,,,
"dEMOCRATIC rEPUBLIC OF THE cONGO ¬êì sEE cONGO, tHE dEMOCRATIC rEPUBLIC OF THE.",,,,,,,,,,
dENMARK,Denmark,Denmark,The Kingdom of Denmark,UN member state,Denmark,Denmark,Danish,Denmark,denmark,Denmark
dJIBOUTI,Djibouti,Djibouti,The Republic of Djibouti,UN member state,Djibouti,,,,djibouti,Djibouti
dOMINICA,Dominica,Dominica,The Commonwealth of Dominica,UN member state,Dominica,Dominica,English,Dominica,dominica,Dominica
dOMINICAN rEPUBLIC (THE),Dominican Republic (the),Dominican Republic,The Dominican Republic,UN member state,Dominican Republic,Dominican Republic,Spanish,Dominican Republic,dominican republic,Dominican Republic
eAST tIMOR ¬êì sEE tIMOR-lESTE.,,,,,,,,,,
eCUADOR,Ecuador,Ecuador,The Republic of Ecuador,UN member state,Ecuador,Ecuador,Spanish,Ecuador,ecuador,Ecuador
eGYPT,Egypt,Egypt,The Arab Republic of Egypt,UN member state,Egypt,Egypt,Arabic,Egypt,egypt,Egypt
eL sALVADOR,El Salvador,El Salvador,The Republic of El Salvador,UN member state,El Salvador,El Salvador,Spanish,El Salvador,el salvador,El Salvador
"eNGLAND ¬êì sEE uNITED kINGDOM, tHE.",,,,,,,,,,
eQUATORIAL gUINEA,Equatorial Guinea,Equatorial Guinea,The Republic of Equatorial Guinea,UN member state,Equatorial Guinea,Equatorial Guinea,French,Equatorial Guinea,equatorial guinea,Equatorial Guinea
eRITREA,Eritrea,Eritrea,The State of Eritrea,UN member state,,,,,eritrea,Eritrea
eSTONIA,Estonia,Estonia,The Republic of Estonia,UN member state,Estonia,Estonia,Estonian,Estonia,estonia,Estonia
eSWATINI [J],Eswatini,,The Kingdom of Eswatini,UN member state,Swaziland,Swaziland,Swati,Swaziland,swaziland,Eswatini
eTHIOPIA,Ethiopia,Ethiopia,The Federal Democratic Republic of Ethiopia,UN member state,Ethiopia,Ethiopia,Oromo,,ethiopia,Ethiopia
fALKLAND iSLANDS (THE) [mALVINAS] [K],Falkland Islands (the),,The Falkland Islands,United Kingdom,,,,,,Falkland Islands
fAROE iSLANDS (THE),Faroe Islands (the),Faroe Islands,The Faroe Islands,Denmark,Faroe Islands,Faroe Islands,Faroese,Faroe Islands,faroe islands,Faroe Islands
fIJI,Fiji,Fiji,The Republic of Fiji,UN member state,Fiji,Fiji,"Hindi, Fiji",Fiji,fiji,Fiji
fINLAND,Finland,Finland,The Republic of Finland,UN member state,Finland,Finland,Finnish,Finland,finland,Finland
fRANCE [L],France,France,The French Republic,UN member state,France,France,French,France,france,France
fRENCH gUIANA,French Guiana,French Guiana,Guyane,France,French Guiana,French Guiana,French,French Guiana,french guiana,French Guiana
fRENCH pOLYNESIA,French Polynesia,French Polynesia,French Polynesia,France,French Polynesia,French Polynesia,French,French Polynesia,french polynesia,French Polynesia
fRENCH sOUTHERN tERRITORIES (THE) [M],French Southern Territories (the),,The French Southern and Antarctic Lands,France,,,,,,French Southern Territories
gABON,Gabon,Gabon,The Gabonese Republic,UN member state,Gabon,Gabon,French,Gabon,gabon,Gabon
gAMBIA (THE),Gambia (the),Gambia,The Republic of The Gambia,UN member state,,Gambia,Mandingo/Mandinka,Gambia,gambia,Gambia
gEORGIA,Georgia,Georgia,Georgia,UN member state,Georgia,Georgia,Georgian,Georgia,georgia,Georgia
gERMANY,Germany,Germany,The Federal Republic of Germany,UN member state,Germany,Germany,German,Germany,germany,Germany
gHANA,Ghana,Ghana,The Republic of Ghana,UN member state,Ghana,Ghana,English,Ghana,ghana,Ghana
gIBRALTAR,Gibraltar,Gibraltar,Gibraltar,United Kingdom,Gibraltar,Gibraltar,English,Gibraltar,gibraltar,Gibraltar
"gREAT bRITAIN ¬êì sEE uNITED kINGDOM, tHE.",,,,,,,,,,
gREECE,Greece,Greece,The Hellenic Republic,UN member state,Greece,Greece,Greek,Greece,greece,Greece
gREENLAND,Greenland,Greenland,Kalaallit Nunaat,Denmark,,Greenland,Greenlandic,Greenland,greenland,Greenland
gRENADA,Grenada,Grenada,Grenada,UN member state,Grenada,Grenada,English,Grenada,grenada,Grenada
gUADELOUPE,Guadeloupe,Guadeloupe,Guadeloupe,France,Guadeloupe,Guadeloupe,French,Guadeloupe,guadeloupe,Guadeloupe
gUAM,Guam,Guam,The Territory of Guam,United States,,Guam,Chamorro,,guam,Guam
gUATEMALA,Guatemala,Guatemala,The Republic of Guatemala,UN member state,Guatemala,Guatemala,Spanish,Guatemala,guatemala,Guatemala
gUERNSEY,Guernsey,Guernsey,The Bailiwick of Guernsey,British Crown,Guernsey,Guernsey,English,Guernsey,guernsey,Guernsey
gUINEA,Guinea,Guinea,The Republic of Guinea,UN member state,Guinea,Guinea,Pular,Guinea,guinea,Guinea
gUINEA-bISSAU,Guinea-Bissau,Guinea-Bissau,The Republic of Guinea-Bissau,UN member state,,,,,guinea-bissau,Guinea-Bissau
gUYANA,Guyana,Guyana,The Co-operative Republic of Guyana,UN member state,,Guyana,English,Guyana,guyana,Guyana
hAITI,Haiti,Haiti,The Republic of Haiti,UN member state,Haiti,Haiti,Haitian Creole,Haiti,haiti,Haiti
"hAWAIIAN iSLANDS ¬êì sEE uNITED sTATES OF aMERICA, tHE.",,,,,,,,,,
hEARD iSLAND AND mCdONALD iSLANDS,Heard Island and McDonald Islands,,The Territory of Heard Island and McDonald Islands,Australia,,,,,,Heard Island and McDonald Islands
hOLY sEE (THE) [N],Holy See (the),,The Holy See,UN observer,,,,,,Holy See
hONDURAS,Honduras,Honduras,The Republic of Honduras,UN member state,Honduras,Honduras,Spanish,Honduras,honduras,Honduras
hONG kONG,Hong Kong,Hong Kong,The Hong Kong Special Administrative Region of China[10],China,Hong Kong,Hong Kong,"Chinese, Mandarin",Hong Kong,hong kong,Hong Kong
hUNGARY,Hungary,Hungary,Hungary,UN member state,Hungary,Hungary,Hungarian,Hungary,hungary,Hungary
iCELAND,Iceland,Iceland,Iceland,UN member state,Iceland,Iceland,Icelandic,Iceland,iceland,Iceland
iNDIA,India,India,The Republic of India,UN member state,India,India,Hindi,India,india,India
iNDONESIA,Indonesia,Indonesia,The Republic of Indonesia,UN member state,Indonesia,Indonesia,Indonesian/Malay,Indonesia,indonesia,Indonesia
iRAN (iSLAMIC rEPUBLIC OF),Iran (Islamic Republic of),Iran,The Islamic Republic of Iran,UN member state,Iran,Iran,Persian,Iran,iran,Iran
iRAQ,Iraq,Iraq,The Republic of Iraq,UN member state,Iraq,Iraq,Arabic,Iraq,iraq,Iraq
iRELAND,Ireland,Ireland,Ireland,UN member state,Ireland,Ireland,English,Ireland,ireland,Ireland
iSLE OF mAN,Isle of Man,Isle of Man,The Isle of Man,British Crown,Isle Of Man,Isle of Man,English,Isle of Man,isle of man,Isle of Man
iSRAEL,Israel,Israel,The State of Israel,UN member state,Israel,Israel,Hebrew,Israel,israel,Israel
iTALY,Italy,Italy,The Italian Republic,UN member state,Italy,Italy,Italian,Italy,italy,Italy
iVORY cOAST ¬êì sEE c„•TE D'iVOIRE.,,,,,,,,,,
jAMAICA,Jamaica,Jamaica,Jamaica,UN member state,Jamaica,Jamaica,English,Jamaica,jamaica,Jamaica
jAN mAYEN ¬êì sEE sVALBARD AND jAN mAYEN.,,,,,,,,,,
jAPAN,Japan,Japan,Japan,UN member state,Japan,Japan,Japanese,Japan,japan,Japan
jERSEY,Jersey,Jersey,The Bailiwick of Jersey,British Crown,Jersey,Jersey,English,Jersey,jersey,Jersey
jORDAN,Jordan,Jordan,The Hashemite Kingdom of Jordan,UN member state,Jordan,Jordan,Arabic,Jordan,jordan,Jordan
kAZAKHSTAN,Kazakhstan,Kazakhstan,The Republic of Kazakhstan,UN member state,Kazakhstan,Kazakhstan,Kazakh,Kazakhstan,kazakhstan,Kazakhstan
kENYA,Kenya,Kenya,The Republic of Kenya,UN member state,Kenya,Kenya,Swaihili,Kenya,kenya,Kenya
kIRIBATI,Kiribati,Kiribati,The Republic of Kiribati,UN member state,,Kiribati,English,Kiribati,kiribati,Kiribati
kOREA (THE dEMOCRATIC pEOPLE'S rEPUBLIC OF) [O],Korea (the Democratic People's Republic of),,The Democratic People's Republic of Korea,UN member state,,,,,,Korea the Democratic People's Republic of
kOREA (THE rEPUBLIC OF) [P],Korea (the Republic of),Korea Republic,The Republic of Korea,UN member state,South Korea,Korea Republic,Korean,Korea Republic,south korea,Korea the Republic of
kUWAIT,Kuwait,Kuwait,The State of Kuwait,UN member state,Kuwait,Kuwait,Arabic,Kuwait,kuwait,Kuwait
kYRGYZSTAN,Kyrgyzstan,Kyrgyzstan,The Kyrgyz Republic,UN member state,Kyrgyzstan,Kyrgyzstan,Kyrgyz,Kyrgyzstan,kyrgyzstan,Kyrgyzstan
lAO pEOPLE'S dEMOCRATIC rEPUBLIC (THE) [Q],Lao People's Democratic Republic (the),Lao,The Lao People's Democratic Republic,UN member state,Laos,Lao,Lao,Lao,laos,Lao Peoples Democratic Republic
lATVIA,Latvia,Latvia,The Republic of Latvia,UN member state,Latvia,Latvia,Latvian,Latvia,latvia,Latvia
lEBANON,Lebanon,Lebanon,The Lebanese Republic,UN member state,Lebanon,Lebanon,Arabic,Lebanon,lebanon,Lebanon
lESOTHO,Lesotho,Lesotho,The Kingdom of Lesotho,UN member state,,Lesotho,"Sotho, Southern",Lesotho,lesotho,Lesotho
lIBERIA,Liberia,Liberia,The Republic of Liberia,UN member state,,Liberia,English,Liberia,liberia,Liberia
lIBYA,Libya,Libyan,The State of Libya,UN member state,Libya,Libyan,Arabic,Libya,libya,Libya
lIECHTENSTEIN,Liechtenstein,Liechtenstein,The Principality of Liechtenstein,UN member state,Liechtenstein,Liechtenstein,Alemannic,Liechtenstein,liechtenstein,Liechtenstein
lITHUANIA,Lithuania,Lithuania,The Republic of Lithuania,UN member state,Lithuania,Lithuania,Lithuanian,Lithuania,lithuania,Lithuania
lUXEMBOURG,Luxembourg,Luxembourg,The Grand Duchy of Luxembourg,UN member state,Luxembourg,Luxembourg,French,Luxembourg,luxembourg,Luxembourg
mACAO [R],Macao,Macao,Macao Special Administrative Region of China[11],China,Macau,Macao,"Chinese, Mandarin",Macao,macau,Macao
nORTH mACEDONIA [S],North Macedonia,Macedonia,Republic of North Macedonia[12],UN member state,Macedonia,Macedonia,Macedonian,Macedonia,macedonia,North Macedonia
mADAGASCAR,Madagascar,Madagascar,The Republic of Madagascar,UN member state,Madagascar,Madagascar,French,Madagascar,madagascar,Madagascar
mALAWI,Malawi,Malawi,The Republic of Malawi,UN member state,Malawi,Malawi,Chichewa,Malawi,malawi,Malawi
mALAYSIA,Malaysia,Malaysia,Malaysia,UN member state,Malaysia,Malaysia,Bahasa Melayu,Malaysia,malaysia,Malaysia
mALDIVES,Maldives,Maldives,The Republic of Maldives,UN member state,Maldives,Maldives,Maldivian,Maldives,maldives,Maldives
mALI,Mali,Mali,The Republic of Mali,UN member state,Mali,Mali,Bambara,Mali,mali,Mali
mALTA,Malta,Malta,The Republic of Malta,UN member state,Malta,Malta,English,Malta,malta,Malta
mARSHALL iSLANDS (THE),Marshall Islands (the),Marshall Islands,The Republic of the Marshall Islands,UN member state,,Marshall Islands,Marshallese,,marshall islands,Marshall Islands
mARTINIQUE,Martinique,Martinique,Martinique,France,Martinique,Martinique,French,Martinique,martinique,Martinique
mAURITANIA,Mauritania,Mauritania,The Islamic Republic of Mauritania,UN member state,,Mauritania,Arabic,Mauritania,mauritania,Mauritania
mAURITIUS,Mauritius,Mauritius,The Republic of Mauritius,UN member state,Mauritius,Mauritius,French,Mauritius,mauritius,Mauritius
mAYOTTE,Mayotte,Mayotte,The Department of Mayotte,France,,,,,mayotte,Mayotte
mEXICO,Mexico,Mexico,The United Mexican States,UN member state,Mexico,Mexico,Spanish,Mexico,mexico,Mexico
mICRONESIA (fEDERATED sTATES OF),Micronesia (Federated States of),Micronesia,The Federated States of Micronesia,UN member state,Federated States of Micronesia,Micronesia,English,Micronesia,micronesia,Micronesia
mOLDOVA (THE rEPUBLIC OF),Moldova (the Republic of),Moldova,The Republic of Moldova,UN member state,Moldova,Moldova,Moldovan,Moldova,moldova,Moldova
mONACO,Monaco,Monaco,The Principality of Monaco,UN member state,Monaco,Monaco,French,Monaco,monaco,Monaco
mONGOLIA,Mongolia,Mongolia,The State of Mongolia,UN member state,Mongolia,Mongolia,"Mongolian, Halh",Mongolia,mongolia,Mongolia
mONTENEGRO,Montenegro,Montenegro,Montenegro,UN member state,Montenegro,Montenegro,Montenegrin,Montenegro,montenegro,Montenegro
mONTSERRAT,Montserrat,Montserrat,Montserrat,United Kingdom,,,,,montserrat,Montserrat
mOROCCO,Morocco,Morocco,The Kingdom of Morocco,UN member state,Morocco,Morocco,Arabic,Morocco,morocco,Morocco
mOZAMBIQUE,Mozambique,Mozambique,The Republic of Mozambique,UN member state,Mozambique,Mozambique,Portuguese,Mozambique,mozambique,Mozambique
mYANMAR [T],Myanmar,Myanmar,The Republic of the Union of Myanmar,UN member state,Myanmar,Myanmar,Burmese,Myanmar,myanmar,Myanmar
nAMIBIA,Namibia,Namibia,The Republic of Namibia,UN member state,Namibia,Namibia,Oshiwambo,Namibia,namibia,Namibia
nAURU,Nauru,Nauru,The Republic of Nauru,UN member state,,Nauru,English,Nauru,,Nauru
nEPAL,Nepal,Nepal,The Federal Democratic Republic of Nepal,UN member state,Nepal,Nepal,Nepali,Nepal,nepal,Nepal
nETHERLANDS (THE),Netherlands (the),Netherlands,The Kingdom of the Netherlands,UN member state,Netherlands,Netherlands,Dutch,Netherlands,netherlands,Netherlands
nEW cALEDONIA,New Caledonia,New Caledonia,New Caledonia,France,New Caledonia,New Caledonia,French,New Caledonia,new caledonia,New Caledonia
nEW zEALAND,New Zealand,New Zealand,New Zealand,UN member state,New Zealand,New Zealand,English,New Zealand,new zealand,New Zealand
nICARAGUA,Nicaragua,Nicaragua,The Republic of Nicaragua,UN member state,Nicaragua,Nicaragua,Spanish,Nicaragua,nicaragua,Nicaragua
nIGER (THE),Niger (the),Niger,The Republic of the Niger,UN member state,Niger,Niger,French,Niger,niger,Niger
nIGERIA,Nigeria,Nigeria,The Federal Republic of Nigeria,UN member state,Nigeria,Nigeria,English,Nigeria,nigeria,Nigeria
nIUE,Niue,Niue,Niue,New Zealand,Niue,Niue,Niue,Niue,,Niue
nORFOLK iSLAND,Norfolk Island,Norfolk Island,The Territory of Norfolk Island,Australia,,,,,,Norfolk Island
"nORTH kOREA ¬êì sEE kOREA, tHE dEMOCRATIC pEOPLE'S rEPUBLIC OF.",,,,,,,,,,
"nORTHERN iRELAND ¬êì sEE uNITED kINGDOM, tHE.",,,,,,,,,,
nORTHERN mARIANA iSLANDS (THE),Northern Mariana Islands (the),Northern Mariana Islands,The Commonwealth of the Northern Mariana Islands,United States,,Northern Mariana Islands,English,,northern mariana islands,Northern Mariana Islands
nORWAY,Norway,Norway,The Kingdom of Norway,UN member state,Norway,Norway,Norwegian,Norway,norway,Norway
oMAN,Oman,Oman,The Sultanate of Oman,UN member state,Oman,Oman,Arabic,Oman,oman,Oman
pAKISTAN,Pakistan,Pakistan,The Islamic Republic of Pakistan,UN member state,Pakistan,Pakistan,Punjabi,Pakistan,pakistan,Pakistan
pALAU,Palau,Palau,The Republic of Palau,UN member state,Palau,Palau,English,Palau,,Palau
"pALESTINE, sTATE OF","Palestine, State of",Palestine,The State of Palestine,UN observer,,Palestinian,Arabic,Palestina,palestine,"Palestine, State of"
pANAMA,Panama,Panama,The Republic of Panam√°,UN member state,Panama,Panama,Spanish,Panama,panama,Panama
pAPUA nEW gUINEA,Papua New Guinea,Papua New Guinea,The Independent State of Papua New Guinea,UN member state,Papua New Guinea,Papua New Guinea,English,Papua New Guinea,papua new guinea,Papua New Guinea
pARAGUAY,Paraguay,Paraguay,The Republic of Paraguay,UN member state,Paraguay,Paraguay,Spanish,Paraguay,paraguay,Paraguay
pEOPLE'S rEPUBLIC OF cHINA ¬êì sEE cHINA.,,,,,,,,,,
pERU,Peru,Peru,The Republic of Per√∫,UN member state,Peru,Peru,Spanish,Peru,peru,Peru
pHILIPPINES (THE),Philippines (the),Philippines,The Republic of the Philippines,UN member state,Philippines,Philippines,"English, Tagalog",Philippines,philippines,Philippines
pITCAIRN [U],Pitcairn,Pitcairn,"The Pitcairn, Henderson, Ducie and Oeno Islands",United Kingdom,,,,,,Pitcairn
pOLAND,Poland,Poland,The Republic of Poland,UN member state,Poland,Poland,Polish,Poland,poland,Poland
pORTUGAL,Portugal,Portugal,The Portuguese Republic,UN member state,Portugal,Portugal,Portuguese,Portugal,portugal,Portugal
pUERTO rICO,Puerto Rico,Puerto Rico,The Commonwealth of Puerto Rico,United States,Puerto Rico,Puerto Rico,English,Puerto Rico,puerto rico,Puerto Rico
qATAR,Qatar,Qatar,The State of Qatar,UN member state,Qatar,Qatar,Arabic,Qatar,qatar,Qatar
rEPUBLIC OF cHINA ¬êì sEE tAIWAN (pROVINCE OF cHINA).,,,,,,,,,,
"rEPUBLIC OF kOREA ¬êì sEE kOREA, tHE rEPUBLIC OF.",,,,,,,,,,
"rEPUBLIC OF THE cONGO ¬êì sEE cONGO, tHE.",,,,,,,,,,
r„©UNION,R√©union,R√©union,R√©union,France,R‚àö¬©union,Reunion,French,,r‚àö¬©union,R√©union
rOMANIA,Romania,Romania,Romania,UN member state,Romania,Romania,Romanian,Romania,romania,Romania
rUSSIAN fEDERATION (THE) [V],Russian Federation (the),Russia,The Russian Federation,UN member state,Russia,Russian Federation,Russian,Russian Federation,russia,Russia
rWANDA,Rwanda,Rwanda,The Republic of Rwanda,UN member state,Rwanda,Rwanda,Kinyarwanda,Rwanda,rwanda,Rwanda
"sABA ¬êì sEE bONAIRE, sINT eUSTATIUS AND sABA.",,,,,,,,,,
sAHRAWI aRAB dEMOCRATIC rEPUBLIC ¬êì sEE wESTERN sAHARA.,,,,,,,,,,
sAINT bARTH„©LEMY,Saint Barth√©lemy,,The Collectivity of Saint-Barth√©lemy,France,,,,,,Saint Barthelemy
"sAINT hELENA
 aSCENSION iSLAND
 tRISTAN DA cUNHA","Saint Helena
 Ascension Island
 Tristan da Cunha",Saint Helena,"Saint Helena, Ascension and Tristan da Cunha",United Kingdom,Saint Helena,,,,,Saint Helena Ascension Island Tristan da Cunha
sAINT kITTS AND nEVIS,Saint Kitts and Nevis,Saint Kitts and Nevis,Saint Kitts and Nevis,UN member state,,Saint Kitts and Nevis,English,,saint kitts and nevis,Saint Kitts and Nevis
sAINT lUCIA,Saint Lucia,Saint Lucia,Saint Lucia,UN member state,,Saint Lucia,English,Saint Lucia,saint lucia,Saint Lucia
sAINT mARTIN (fRENCH PART),Saint Martin (French part),Saint Martin,The Collectivity of Saint-Martin,France,,,,,saint martin,Saint Martin French part
sAINT pIERRE AND mIQUELON,Saint Pierre and Miquelon,Saint Pierre and Miquelon,The Overseas Collectivity of Saint-Pierre and Miquelon,France,Saint Pierre and Miquelon,,,,,Saint Pierre and Miquelon
sAINT vINCENT AND THE gRENADINES,Saint Vincent and the Grenadines,Saint Vincent and the Grenadines,Saint Vincent and the Grenadines,UN member state,Saint Vincent and the Grenadines,Saint Vincent,English,Saint Vincent,saint vincent and the grenadines,Saint Vincent and the Grenadines
sAMOA,Samoa,Samoa,The Independent State of Samoa,UN member state,Samoa,Samoa,English,Samoa,samoa,Samoa
sAN mARINO,San Marino,San Marino,The Republic of San Marino,UN member state,San Marino,San Marino,Italian,San Marino,san marino,San Marino
sAO tOME AND pRINCIPE,Sao Tome and Principe,,The Democratic Republic of S√£o Tom√© and Pr√≠ncipe,UN member state,,,,,s‚àö¬£o tom‚àö¬© and pr‚àö‚â†ncipe,Sao Tome and Principe
sAUDI aRABIA,Saudi Arabia,Saudi Arabia,The Kingdom of Saudi Arabia,UN member state,Saudi Arabia,Saudi Arabia,Arabic,Saudi Arabia,saudi arabia,Saudi Arabia
"sCOTLAND ¬êì sEE uNITED kINGDOM, tHE.",,,,,,,,,,
sENEGAL,Senegal,Senegal,The Republic of Senegal,UN member state,Senegal,Senegal,Wolof,Senegal,senegal,Senegal
sERBIA,Serbia,Serbia,The Republic of Serbia,UN member state,Serbia,Serbia,Serbian,Serbia,serbia,Serbia
sEYCHELLES,Seychelles,Seychelles,The Republic of Seychelles,UN member state,,Seychelles,French,Seychelles,seychelles,Seychelles
sIERRA lEONE,Sierra Leone,Sierra Leone,The Republic of Sierra Leone,UN member state,Sierra Leone,Sierra Leone,English,Sierra Leone,sierra leone,Sierra Leone
sINGAPORE,Singapore,Singapore,The Republic of Singapore,UN member state,Singapore,Singapore,English,Singapore,singapore,Singapore
"sINT eUSTATIUS ¬êì sEE bONAIRE, sINT eUSTATIUS AND sABA.",,,,,,,,,,
sINT mAARTEN (dUTCH PART),Sint Maarten (Dutch part),,Sint Maarten,Netherlands,,,,,,Sint Maarten Dutch part
sLOVAKIA,Slovakia,Slovakia,The Slovak Republic,UN member state,Slovakia,Slovakia,Slovak,Slovakia,slovakia,Slovakia
sLOVENIA,Slovenia,Slovenia,The Republic of Slovenia,UN member state,Slovenia,Slovenia,Slovene,Slovenia,slovenia,Slovenia
sOLOMON iSLANDS,Solomon Islands,Solomon Islands,The Solomon Islands,UN member state,,Solomon Islands,English,Solomon Islands,solomon islands,Solomon Islands
sOMALIA,Somalia,Somalia,The Federal Republic of Somalia,UN member state,Somalia,Somalia,Somali,Somalia,somalia,Somalia
sOUTH aFRICA,South Africa,South Africa,The Republic of South Africa,UN member state,South Africa,South Africa,Zulu,South Africa,south africa,South Africa
sOUTH gEORGIA AND THE sOUTH sANDWICH iSLANDS,South Georgia and the South Sandwich Islands,,South Georgia and the South Sandwich Islands,United Kingdom,South Georgia,,,,,South Georgia and the South Sandwich Islands
"sOUTH kOREA ¬êì sEE kOREA, tHE rEPUBLIC OF.",,,,,,,,,,
sOUTH sUDAN,South Sudan,South Sudan,The Republic of South Sudan,UN member state,,,,,south sudan,South Sudan
sPAIN,Spain,Spain,The Kingdom of Spain,UN member state,Spain,Spain,Spanish,Spain,spain,Spain
sRI lANKA,Sri Lanka,Sri Lanka,The Democratic Socialist Republic of Sri Lanka,UN member state,Sri Lanka,Sri Lanka,Sinhala,Sri Lanka,sri lanka,Sri Lanka
sUDAN (THE),Sudan (the),Sudan,The Republic of the Sudan,UN member state,Sudan,Sudan,Arabic,,sudan,Sudan
sURINAME,Suriname,Suriname,The Republic of Suriname,UN member state,,Suriname,Dutch,Suriname,suriname,Suriname
"sVALBARD
 jAN mAYEN","Svalbard
 Jan Mayen",,Svalbard and Jan Mayen,Norway,,,,,svalbard and jan mayen,Svalbard Jan Mayen
sWEDEN,Sweden,Sweden,The Kingdom of Sweden,UN member state,Sweden,Sweden,Swedish,Sweden,sweden,Sweden
sWITZERLAND,Switzerland,Switzerland,The Swiss Confederation,UN member state,Switzerland,Switzerland,French,Switzerland,switzerland,Switzerland
sYRIAN aRAB rEPUBLIC (THE) [X],Syrian Arab Republic (the),Syria,The Syrian Arab Republic,UN member state,Syria,Syrian Arab Republic,Arabic,Syrian Arab Republic,syria,Syrian Arab Republic
tAIWAN (pROVINCE OF cHINA) [Y],Taiwan (Province of China),Taiwan,The Republic of China,disputed [z],Taiwan,Taiwan,Taiwanese Mandarin,Taiwan,taiwan,Taiwan
tAJIKISTAN,Tajikistan,Tajikistan,The Republic of Tajikistan,UN member state,Tajikistan,Tajikistan,Tajik,Tajikistan,tajikistan,Tajikistan
"tANZANIA, THE uNITED rEPUBLIC OF","Tanzania, the United Republic of",Tanzania,The United Republic of Tanzania,UN member state,Tanzania,Tanzania,Swahili,Tanzania,tanzania,Tanzania
tHAILAND,Thailand,Thailand,The Kingdom of Thailand,UN member state,Thailand,Thailand,Thai,Thailand,thailand,Thailand
tIMOR-lESTE [AA],Timor-Leste,,The Democratic Republic of Timor-Leste,UN member state,,Timor-Leste,Tetun Dili,Timor-Leste,timor-leste,Timor Leste
tOGO,Togo,Togo,The Togolese Republic,UN member state,Togo,Togo,French,Togo,togo,Togo
tOKELAU,Tokelau,Tokelau,Tokelau,New Zealand,Tokelau,,,,,Tokelau
tONGA,Tonga,Tonga,The Kingdom of Tonga,UN member state,Tonga,Tonga,Tongan,Tonga,tonga,Tonga
tRINIDAD AND tOBAGO,Trinidad and Tobago,Trinidad and Tobago,The Republic of Trinidad and Tobago,UN member state,Trinidad and Tobago,Trinidad and Tobago,English,Trinidad and Tobago,trinidad and tobago,Trinidad and Tobago
tUNISIA,Tunisia,Tunisia,The Republic of Tunisia,UN member state,Tunisia,Tunisia,Arabic,Tunisia,tunisia,Tunisia
tURKEY,Turkey,Turkey,The Republic of Turkey,UN member state,Turkey,Turkey,Turkish,Bahrain,turkey,Turkey
tURKMENISTAN,Turkmenistan,Turkmenistan,Turkmenistan,UN member state,Turkmenistan,Turkmenistan,Turkmen,Turkmenistan,turkmenistan,Turkmenistan
tURKS AND cAICOS iSLANDS (THE),Turks and Caicos Islands (the),Turks and Caicos Islands,The Turks and Caicos Islands,United Kingdom,,Turks and Caicos Islands,English,,turks and caicos islands,Turks and Caicos Islands
tUVALU,Tuvalu,Tuvalu,Tuvalu,UN member state,Tuvalu,,,,tuvalu,Tuvalu
uGANDA,Uganda,Uganda,The Republic of Uganda,UN member state,Uganda,Uganda,Swahili,Uganda,uganda,Uganda
uKRAINE,Ukraine,Ukraine,Ukraine,UN member state,Ukraine,Ukraine,Ukrainian,Ukraine,ukraine,Ukraine
uNITED aRAB eMIRATES (THE),United Arab Emirates (the),United Arab Emirates,The United Arab Emirates,UN member state,United Arab Emirates,United Arab Emirates,Arabic,United Arab Emirates,united arab emirates,United Arab Emirates
uNITED kINGDOM OF gREAT bRITAIN AND nORTHERN iRELAND (THE),United Kingdom of Great Britain and Northern Ireland (the),United Kingdom,The United Kingdom of Great Britain and Northern Ireland,UN member state,United Kingdom,United Kingdom,English,United Kingdom,united kingdom,United Kingdom
uNITED sTATES mINOR oUTLYING iSLANDS (THE) [AC],United States Minor Outlying Islands (the),,"Baker Island, Howland Island, Jarvis Island, Johnston Atoll, Kingman Reef, Midway Atoll, Navassa Island, Palmyra Atoll, and Wake Island",United States,,,,,,United States Minor Outlying Islands
uNITED sTATES OF aMERICA (THE),United States of America (the),United States,The United States of America,UN member state,United States,US,English,United States,united states,United States
uNITED sTATES vIRGIN iSLANDS ¬êì sEE vIRGIN iSLANDS (u.s.).,,,,,,,,,,
uRUGUAY,Uruguay,Uruguay,The Oriental Republic of Uruguay,UN member state,Uruguay,Uruguay,Spanish,Uruguay,uruguay,Uruguay
uZBEKISTAN,Uzbekistan,Uzbekistan,The Republic of Uzbekistan,UN member state,Uzbekistan,Uzbekistan,Uzbek,Uzbekistan,uzbekistan,Uzbekistan
vANUATU,Vanuatu,Vanuatu,The Republic of Vanuatu,UN member state,Vanuatu,Vanuatu,Bislama,Vanuatu,vanuatu,Vanuatu
"vATICAN cITY ¬êì sEE hOLY sEE, tHE.",,,,,,,,,,
vENEZUELA (bOLIVARIAN rEPUBLIC OF),Venezuela (Bolivarian Republic of),Venezuela,The Bolivarian Republic of Venezuela,UN member state,Venezuela,Venezuela,Spanish,Venezuela,venezuela,Venezuela
vIET nAM [AE],Viet Nam,Vietnam,The Socialist Republic of Viet Nam,UN member state,Vietnam,Viet Nam,Vietnamese,Vietnam,vietnam,Viet Nam
vIRGIN iSLANDS (bRITISH) [AF],Virgin Islands (British),Virgin Islands British,The Virgin Islands,United Kingdom,Virgin Islands British,Virgin Islands,English,,british virgin islands,Virgin Islands British
vIRGIN iSLANDS (u.s.) [AG],Virgin Islands (U.S.),U.S. Virgin Islands,The Virgin Islands of the United States,United States,U.S. Virgin Islands,,,Virgin Islands,,Virgin Islands US
"wALES ¬êì sEE uNITED kINGDOM, tHE.",,,,,,,,,,
wALLIS AND fUTUNA,Wallis and Futuna,Wallis and Futuna,The Territory of the Wallis and Futuna Islands,France,,,,,,Wallis and Futuna
wESTERN sAHARA [AH],Western Sahara,,The Sahrawi Arab Democratic Republic,disputed [ai],,,,,western sahara,Western Sahara
yEMEN,Yemen,Yemen,The Republic of Yemen,UN member state,,Yemen,Arabic,Yemen,yemen,Yemen
zAMBIA,Zambia,Zambia,The Republic of Zambia,UN member state,Zambia,Zambia,Bemba,Zambia,zambia,Zambia
zIMBABWE,Zimbabwe,Zimbabwe,The Republic of Zimbabwe,UN member state,Zimbabwe,Zimbabwe,Shona,Zimbabwe,zimbabwe,Zimbabwe
